[{"OBJECT_NAME":"STARLINK-6233","OBJECT_ID":"2023-094M","EPOCH":"2026-03-09T22:00:01.999584","MEAN_MOTION":15.14468056,"ECCENTRICITY":4.951e-5,"INCLINATION":43.0008,"RA_OF_ASC_NODE":28.6996,"ARG_OF_PERICENTER":290.179,"MEAN_ANOMALY":255.2112,"EPHEMERIS_TYPE":0,"CLASSIFICATION_TYPE":"U","NORAD_CAT_ID":57229,"ELEMENT_SET_NO":999,"REV_AT_EPOCH":577,"BSTAR":0.0040861784,"MEAN_MOTION_DOT":0.00077118,"MEAN_MOTION_DDOT":0},{"OBJECT_NAME":"LEGION 4","OBJECT_ID":"2024-146B","EPOCH":"2026-03-09T20:57:25.515072","MEAN_MOTION":15.16207109,"ECCENTRICITY":0.00094512,"INCLINATION":45.0024,"RA_OF_ASC_NODE":294.7765,"ARG_OF_PERICENTER":105.8895,"MEAN_ANOMALY":254.3026,"EPHEMERIS_TYPE":0,"CLASSIFICATION_TYPE":"U","NORAD_CAT_ID":60453,"ELEMENT_SET_NO":999,"REV_AT_EPOCH":8580,"BSTAR":0.00030530233,"MEAN_MOTION_DOT":5.743e-5,"MEAN_MOTION_DDOT":0}]
